FENGYUN 1C DEB          
1 38498U 99025ESH 26083.26077838  .00001014  00000+0  17902-2 0  9993
2 38498  99.6948  97.5082 0556804 201.0730 156.6593 12.96817706550597
FENGYUN 1C DEB          
1 38510U 99025ESV 26084.26856855  .00000994  00000+0  52541-3 0  9998
2 38510  98.6016  94.4361 0097228 215.9382 143.5226 14.13613707901189
FENGYUN 1C DEB          
1 38512U 99025ESX 26086.10010195  .00000990  00000+0  90532-3 0  9992
2 38512  98.3757 320.2237 0225407 184.1714 175.7564 13.74289185610038
FENGYUN 1C DEB          
1 38514U 99025ESZ 26087.82512917  .00008911  00000+0  30674-2 0  9994
2 38514  98.0430 112.6622 0260583  64.6977 298.0952 14.18795006894995
FENGYUN 1C DEB          
1 38516U 99025ETB 26087.24128924  .00000250  00000+0  98194-4 0  9994
2 38516  98.4557  73.7661 0110527 171.5840 188.7233 14.34155375863855
FENGYUN 1C DEB          
1 38519U 99025ETE 26062.15749397  .00001858  00000+0  14318-2 0  9992
2 38519  99.5415  44.6067 0168432 188.1814 171.6588 13.87885134858536
FENGYUN 1C DEB          
1 38717U 99025ETJ 26067.02610109  .00003671  00000+0  17005-2 0  9992
2 38717  99.1558  90.2185 0057998 112.1631 277.7266 14.20531738596374
FENGYUN 1C DEB          
1 38722U 99025ETP 26088.06048841  .00025527  00000+0  43979-2 0  9996
2 38722  99.3506 204.9236 0140338 134.6857 226.5876 14.62192487720150
FENGYUN 1C DEB          
1 38724U 99025ETR 26085.96642152  .00007385  00000+0  34504-2 0  9995
2 38724  98.7342  97.8720 0124714 132.3994 228.7814 14.16569090580996
FENGYUN 1C DEB          
1 38725U 99025ETS 26085.81005272  .00005914  00000+0  17055-2 0  9994
2 38725  98.8750 220.4449 0030986 305.6297  54.2007 14.44774252748543
FENGYUN 1C DEB          
1 38726U 99025ETT 26066.35420915  .00409659  00000+0  13793-1 0  9996
2 38726  99.1103 112.0072 0015846 201.0032 159.0553 15.28888299711351
FENGYUN 1C DEB          
1 38727U 99025ETU 26083.22111291  .00002481  00000+0  15024-2 0  9998
2 38727  98.6165  80.3606 0101949 296.6347 125.5114 14.04755694732576
FENGYUN 1C DEB          
1 38728U 99025ETV 26086.26132123  .00007066  00000+0  10760-2 0  9999
2 38728  99.2646  92.9320 0073079  92.5638 324.9589 14.72508163671483
FENGYUN 1C DEB          
1 38789U 99025EUD 26086.46884824  .00002871  00000+0  62310-3 0  9998
2 38789  98.8489 342.2487 0205803  71.2396 104.2495 14.46594524633594
FENGYUN 1C DEB          
1 38795U 99025EUK 26061.24644717  .00002264  00000+0  24426-2 0  9990
2 38795  98.7082  77.1399 0500951  58.1712 306.7183 13.30208251795697
FENGYUN 1C DEB          
1 38797U 99025EUM 26087.43190605  .00000594  00000+0  68054-3 0  9993
2 38797  99.4767 342.3463 0245623 311.6751  46.3597 13.61755332607215
