[{"OBJECT_NAME":"FENGYUN 1C DEB","OBJECT_ID":"1999-025ESH","EPOCH":"2026-03-24T06:15:31.252032","MEAN_MOTION":12.96817706,"ECCENTRICITY":0.0556804,"INCLINATION":99.6948,"RA_OF_ASC_NODE":97.5082,"ARG_OF_PERICENTER":201.073,"MEAN_ANOMALY":156.6593,"EPHEMERIS_TYPE":0,"CLASSIFICATION_TYPE":"U","NORAD_CAT_ID":38498,"ELEMENT_SET_NO":999,"REV_AT_EPOCH":55059,"BSTAR":0.0017902,"MEAN_MOTION_DOT":1.014e-5,"MEAN_MOTION_DDOT":0},{"OBJECT_NAME":"FENGYUN 1C DEB","OBJECT_ID":"1999-025ESV","EPOCH":"2026-03-25T06:26:44.322720","MEAN_MOTION":14.13613707,"ECCENTRICITY":0.00972281,"INCLINATION":98.6016,"RA_OF_ASC_NODE":94.4361,"ARG_OF_PERICENTER":215.9382,"MEAN_ANOMALY":143.5226,"EPHEMERIS_TYPE":0,"CLASSIFICATION_TYPE":"U","NORAD_CAT_ID":38510,"ELEMENT_SET_NO":999,"REV_AT_EPOCH":90118,"BSTAR":0.00052540518,"MEAN_MOTION_DOT":9.94e-6,"MEAN_MOTION_DDOT":0},{"OBJECT_NAME":"FENGYUN 1C DEB","OBJECT_ID":"1999-025ESX","EPOCH":"2026-03-27T02:24:08.808480","MEAN_MOTION":13.74289185,"ECCENTRICITY":0.02254076,"INCLINATION":98.3757,"RA_OF_ASC_NODE":320.2237,"ARG_OF_PERICENTER":184.1714,"MEAN_ANOMALY":175.7564,"EPHEMERIS_TYPE":0,"CLASSIFICATION_TYPE":"U","NORAD_CAT_ID":38512,"ELEMENT_SET_NO":999,"REV_AT_EPOCH":61003,"BSTAR":0.00090531651,"MEAN_MOTION_DOT":9.9e-6,"MEAN_MOTION_DDOT":0},{"OBJECT_NAME":"FENGYUN 1C DEB","OBJECT_ID":"1999-025ESZ","EPOCH":"2026-03-28T19:48:11.160288","MEAN_MOTION":14.18795006,"ECCENTRICITY":0.02605839,"INCLINATION":98.043,"RA_OF_ASC_NODE":112.6622,"ARG_OF_PERICENTER":64.6977,"MEAN_ANOMALY":298.0952,"EPHEMERIS_TYPE":0,"CLASSIFICATION_TYPE":"U","NORAD_CAT_ID":38514,"ELEMENT_SET_NO":999,"REV_AT_EPOCH":89499,"BSTAR":0.003067359,"MEAN_MOTION_DOT":8.911e-5,"MEAN_MOTION_DDOT":0},{"OBJECT_NAME":"FENGYUN 1C DEB","OBJECT_ID":"1999-025ETB","EPOCH":"2026-03-28T05:47:27.390336","MEAN_MOTION":14.34155375,"ECCENTRICITY":0.0110527,"INCLINATION":98.4557,"RA_OF_ASC_NODE":73.7661,"ARG_OF_PERICENTER":171.584,"MEAN_ANOMALY":188.7233,"EPHEMERIS_TYPE":0,"CLASSIFICATION_TYPE":"U","NORAD_CAT_ID":38516,"ELEMENT_SET_NO":999,"REV_AT_EPOCH":86385,"BSTAR":9.8194e-5,"MEAN_MOTION_DOT":2.5e-6,"MEAN_MOTION_DDOT":0},{"OBJECT_NAME":"FENGYUN 1C DEB","OBJECT_ID":"1999-025ETE","EPOCH":"2026-03-03T03:46:47.479008","MEAN_MOTION":13.87885134,"ECCENTRICITY":0.01684326,"INCLINATION":99.5415,"RA_OF_ASC_NODE":44.6067,"ARG_OF_PERICENTER":188.1814,"MEAN_ANOMALY":171.6588,"EPHEMERIS_TYPE":0,"CLASSIFICATION_TYPE":"U","NORAD_CAT_ID":38519,"ELEMENT_SET_NO":999,"REV_AT_EPOCH":85853,"BSTAR":0.0014318426,"MEAN_MOTION_DOT":1.858e-5,"MEAN_MOTION_DDOT":0},{"OBJECT_NAME":"FENGYUN 1C DEB","OBJECT_ID":"1999-025ETJ","EPOCH":"2026-03-08T00:37:35.134176","MEAN_MOTION":14.20531738,"ECCENTRICITY":0.00579984,"INCLINATION":99.1558,"RA_OF_ASC_NODE":90.2185,"ARG_OF_PERICENTER":112.1631,"MEAN_ANOMALY":277.7266,"EPHEMERIS_TYPE":0,"CLASSIFICATION_TYPE":"U","NORAD_CAT_ID":38717,"ELEMENT_SET_NO":999,"REV_AT_EPOCH":59637,"BSTAR":0.0017005235,"MEAN_MOTION_DOT":3.671e-5,"MEAN_MOTION_DDOT":0},{"OBJECT_NAME":"FENGYUN 1C DEB","OBJECT_ID":"1999-025ETP","EPOCH":"2026-03-29T01:27:06.198624","MEAN_MOTION":14.62192487,"ECCENTRICITY":0.0140338,"INCLINATION":99.3506,"RA_OF_ASC_NODE":204.9236,"ARG_OF_PERICENTER":134.6857,"MEAN_ANOMALY":226.5876,"EPHEMERIS_TYPE":0,"CLASSIFICATION_TYPE":"U","NORAD_CAT_ID":38722,"ELEMENT_SET_NO":999,"REV_AT_EPOCH":72015,"BSTAR":0.0043979,"MEAN_MOTION_DOT":0.00025527,"MEAN_MOTION_DDOT":0},{"OBJECT_NAME":"FENGYUN 1C DEB","OBJECT_ID":"1999-025ETR","EPOCH":"2026-03-26T23:11:38.819328","MEAN_MOTION":14.1656909,"ECCENTRICITY":0.0124714,"INCLINATION":98.7342,"RA_OF_ASC_NODE":97.872,"ARG_OF_PERICENTER":132.3994,"MEAN_ANOMALY":228.7814,"EPHEMERIS_TYPE":0,"CLASSIFICATION_TYPE":"U","NORAD_CAT_ID":38724,"ELEMENT_SET_NO":999,"REV_AT_EPOCH":58099,"BSTAR":0.0034504,"MEAN_MOTION_DOT":7.385e-5,"MEAN_MOTION_DDOT":0},{"OBJECT_NAME":"FENGYUN 1C DEB","OBJECT_ID":"1999-025ETS","EPOCH":"2026-03-26T19:26:28.555008","MEAN_MOTION":14.44774252,"ECCENTRICITY":0.00309868,"INCLINATION":98.875,"RA_OF_ASC_NODE":220.4449,"ARG_OF_PERICENTER":305.6297,"MEAN_ANOMALY":54.2007,"EPHEMERIS_TYPE":0,"CLASSIFICATION_TYPE":"U","NORAD_CAT_ID":38725,"ELEMENT_SET_NO":999,"REV_AT_EPOCH":74854,"BSTAR":0.0017055109,"MEAN_MOTION_DOT":5.914e-5,"MEAN_MOTION_DDOT":0},{"OBJECT_NAME":"FENGYUN 1C DEB","OBJECT_ID":"1999-025ETT","EPOCH":"2026-03-07T08:30:03.670560","MEAN_MOTION":15.28888299,"ECCENTRICITY":0.00158464,"INCLINATION":99.1103,"RA_OF_ASC_NODE":112.0072,"ARG_OF_PERICENTER":201.0032,"MEAN_ANOMALY":159.0553,"EPHEMERIS_TYPE":0,"CLASSIFICATION_TYPE":"U","NORAD_CAT_ID":38726,"ELEMENT_SET_NO":999,"REV_AT_EPOCH":71135,"BSTAR":0.013792546,"MEAN_MOTION_DOT":0.00409659,"MEAN_MOTION_DDOT":0},{"OBJECT_NAME":"FENGYUN 1C DEB","OBJECT_ID":"1999-025ETU","EPOCH":"2026-03-24T05:18:24.155424","MEAN_MOTION":14.04755694,"ECCENTRICITY":0.01019491,"INCLINATION":98.6165,"RA_OF_ASC_NODE":80.3606,"ARG_OF_PERICENTER":296.6347,"MEAN_ANOMALY":125.5114,"EPHEMERIS_TYPE":0,"CLASSIFICATION_TYPE":"U","NORAD_CAT_ID":38727,"ELEMENT_SET_NO":999,"REV_AT_EPOCH":73257,"BSTAR":0.0015024046,"MEAN_MOTION_DOT":2.481e-5,"MEAN_MOTION_DDOT":0},{"OBJECT_NAME":"FENGYUN 1C DEB","OBJECT_ID":"1999-025ETV","EPOCH":"2026-03-27T06:16:18.154272","MEAN_MOTION":14.72508163,"ECCENTRICITY":0.0073079,"INCLINATION":99.2646,"RA_OF_ASC_NODE":92.932,"ARG_OF_PERICENTER":92.5638,"MEAN_ANOMALY":324.9589,"EPHEMERIS_TYPE":0,"CLASSIFICATION_TYPE":"U","NORAD_CAT_ID":38728,"ELEMENT_SET_NO":999,"REV_AT_EPOCH":67148,"BSTAR":0.001076,"MEAN_MOTION_DOT":7.066e-5,"MEAN_MOTION_DDOT":0},{"OBJECT_NAME":"FENGYUN 1C DEB","OBJECT_ID":"1999-025EUD","EPOCH":"2026-03-27T11:15:08.487936","MEAN_MOTION":14.46594524,"ECCENTRICITY":0.0205803,"INCLINATION":98.8489,"RA_OF_ASC_NODE":342.2487,"ARG_OF_PERICENTER":71.2396,"MEAN_ANOMALY":104.2495,"EPHEMERIS_TYPE":0,"CLASSIFICATION_TYPE":"U","NORAD_CAT_ID":38789,"ELEMENT_SET_NO":999,"REV_AT_EPOCH":63359,"BSTAR":0.0006231,"MEAN_MOTION_DOT":2.871e-5,"MEAN_MOTION_DDOT":0},{"OBJECT_NAME":"FENGYUN 1C DEB","OBJECT_ID":"1999-025EUK","EPOCH":"2026-03-02T05:54:53.035488","MEAN_MOTION":13.30208251,"ECCENTRICITY":0.05009511,"INCLINATION":98.7082,"RA_OF_ASC_NODE":77.1399,"ARG_OF_PERICENTER":58.1712,"MEAN_ANOMALY":306.7183,"EPHEMERIS_TYPE":0,"CLASSIFICATION_TYPE":"U","NORAD_CAT_ID":38795,"ELEMENT_SET_NO":999,"REV_AT_EPOCH":79569,"BSTAR":0.0024425611,"MEAN_MOTION_DOT":2.264e-5,"MEAN_MOTION_DDOT":0},{"OBJECT_NAME":"FENGYUN 1C DEB","OBJECT_ID":"1999-025EUM","EPOCH":"2026-03-28T10:21:56.682720","MEAN_MOTION":13.61755332,"ECCENTRICITY":0.0245623,"INCLINATION":99.4767,"RA_OF_ASC_NODE":342.3463,"ARG_OF_PERICENTER":311.6751,"MEAN_ANOMALY":46.3597,"EPHEMERIS_TYPE":0,"CLASSIFICATION_TYPE":"U","NORAD_CAT_ID":38797,"ELEMENT_SET_NO":999,"REV_AT_EPOCH":60721,"BSTAR":0.00068054,"MEAN_MOTION_DOT":5.94e-6,"MEAN_MOTION_DDOT":0}]
